[{"OBJECT_NAME":"GAOFEN-11 02","OBJECT_ID":"2020-064A","EPOCH":"2026-03-09T22:52:21.157824","MEAN_MOTION":15.23715176,"ECCENTRICITY":0.0015622,"INCLINATION":97.4982,"RA_OF_ASC_NODE":194.9416,"ARG_OF_PERICENTER":294.7165,"MEAN_ANOMALY":65.2445,"EPHEMERIS_TYPE":0,"CLASSIFICATION_TYPE":"U","NORAD_CAT_ID":46396,"ELEMENT_SET_NO":999,"REV_AT_EPOCH":30642,"BSTAR":0.00039263481,"MEAN_MOTION_DOT":9.392e-5,"MEAN_MOTION_DDOT":0},{"OBJECT_NAME":"SPACEMOBILE-003","OBJECT_ID":"2024-163A","EPOCH":"2026-03-09T22:12:19.490976","MEAN_MOTION":15.21123945,"ECCENTRICITY":0.00061285,"INCLINATION":52.9672,"RA_OF_ASC_NODE":45.9892,"ARG_OF_PERICENTER":185.2661,"MEAN_ANOMALY":174.827,"EPHEMERIS_TYPE":0,"CLASSIFICATION_TYPE":"U","NORAD_CAT_ID":61045,"ELEMENT_SET_NO":999,"REV_AT_EPOCH":8266,"BSTAR":0.00043932045,"MEAN_MOTION_DOT":9.59e-5,"MEAN_MOTION_DDOT":0}]
